[
    {
        "Altitude(m)": 554015.3498971722,
        "Argument of Periapsis(deg)": 0.006622991110713501,
        "Eccentricity": 0.0,
        "Inclination(deg)": 53.0,
        "Latitude(deg)": 22.288088700190233,
        "Longitude(deg)": 127.11637296177827,
        "Mean Anomaly(deg)": 28.273392867577584,
        "RAAN(deg)": 209.99014336852804,
        "Satellite Name": "Starlink Shell 1 925",
        "Satellite Number": 925,
        "Semi-Major Axis(m)": 6931778.249405717,
        "Time(s)": 190
    },
    {
        "Altitude(m)": 554065.011864404,
        "Argument of Periapsis(deg)": 0.0069715695902247375,
        "Eccentricity": 0.0,
        "Inclination(deg)": 53.0,
        "Latitude(deg)": 22.766561503326784,
        "Longitude(deg)": 127.5162546845886,
        "Mean Anomaly(deg)": 28.900224071134332,
        "RAAN(deg)": 209.98962459845055,
        "Satellite Name": "Starlink Shell 1 925",
        "Satellite Number": 925,
        "Semi-Major Axis(m)": 6931778.249405717,
        "Time(s)": 200
    },
    {
        "Altitude(m)": 554116.5110668866,
        "Argument of Periapsis(deg)": 0.007320148069735974,
        "Eccentricity": 0.0,
        "Inclination(deg)": 53.0,
        "Latitude(deg)": 23.243779695692595,
        "Longitude(deg)": 127.91921637485143,
        "Mean Anomaly(deg)": 29.52705527469105,
        "RAAN(deg)": 209.98910582837308,
        "Satellite Name": "Starlink Shell 1 925",
        "Satellite Number": 925,
        "Semi-Major Axis(m)": 6931778.249405717,
        "Time(s)": 210
    },
    {
        "Altitude(m)": 554169.8019957459,
        "Argument of Periapsis(deg)": 0.007668726549247212,
        "Eccentricity": 0.0,
        "Inclination(deg)": 53.0,
        "Latitude(deg)": 23.719705335564573,
        "Longitude(deg)": 128.3253437723082,
        "Mean Anomaly(deg)": 30.153886478247724,
        "RAAN(deg)": 209.98858705829562,
        "Satellite Name": "Starlink Shell 1 925",
        "Satellite Number": 925,
        "Semi-Major Axis(m)": 6931778.249405717,
        "Time(s)": 220
    },
    {
        "Altitude(m)": 554224.8384111947,
        "Argument of Periapsis(deg)": 0.00801730502875845,
        "Eccentricity": 0.0,
        "Inclination(deg)": 53.0,
        "Latitude(deg)": 24.194299725391232,
        "Longitude(deg)": 128.73472382383665,
        "Mean Anomaly(deg)": 30.780717681804468,
        "RAAN(deg)": 209.98806828821813,
        "Satellite Name": "Starlink Shell 1 925",
        "Satellite Number": 925,
        "Semi-Major Axis(m)": 6931778.249405717,
        "Time(s)": 230
    },
    {
        "Altitude(m)": 554281.5733677193,
        "Argument of Periapsis(deg)": 0.008365883508269684,
        "Eccentricity": 0.0,
        "Inclination(deg)": 53.0,
        "Latitude(deg)": 24.667523386829156,
        "Longitude(deg)": 129.14744520670973,
        "Mean Anomaly(deg)": 31.40754888536114,
        "RAAN(deg)": 209.98754951814067,
        "Satellite Name": "Starlink Shell 1 925",
        "Satellite Number": 925,
        "Semi-Major Axis(m)": 6931778.249405717,
        "Time(s)": 240
    },
    {
        "Altitude(m)": 554339.9592395702,
        "Argument of Periapsis(deg)": 0.008714461987780921,
        "Eccentricity": 0.0,
        "Inclination(deg)": 53.0,
        "Latitude(deg)": 25.139336035251848,
        "Longitude(deg)": 129.56359733775196,
        "Mean Anomaly(deg)": 32.03438008891786,
        "RAAN(deg)": 209.98703074806323,
        "Satellite Name": "Starlink Shell 1 925",
        "Satellite Number": 925,
        "Semi-Major Axis(m)": 6931778.249405717,
        "Time(s)": 250
    },
    {
        "Altitude(m)": 554399.947746557,
        "Argument of Periapsis(deg)": 0.009063040467292158,
        "Eccentricity": 0.0,
        "Inclination(deg)": 53.0,
        "Latitude(deg)": 25.60969655372525,
        "Longitude(deg)": 129.98327089400854,
        "Mean Anomaly(deg)": 32.661211292474604,
        "RAAN(deg)": 209.98651197798574,
        "Satellite Name": "Starlink Shell 1 925",
        "Satellite Number": 925,
        "Semi-Major Axis(m)": 6931778.249405717,
        "Time(s)": 260
    },
    {
        "Altitude(m)": 554461.4899801285,
        "Argument of Periapsis(deg)": 0.009411618946803396,
        "Eccentricity": 0.0,
        "Inclination(deg)": 53.0,
        "Latitude(deg)": 26.07856296645192,
        "Longitude(deg)": 130.4065583319092,
        "Mean Anomaly(deg)": 33.288042496031274,
        "RAAN(deg)": 209.98599320790828,
        "Satellite Name": "Starlink Shell 1 925",
        "Satellite Number": 925,
        "Semi-Major Axis(m)": 6931778.249405717,
        "Time(s)": 270
    },
    {
        "Altitude(m)": 554524.5364297341,
        "Argument of Periapsis(deg)": 0.009760197426314633,
        "Eccentricity": 0.0,
        "Inclination(deg)": 53.0,
        "Latitude(deg)": 26.54589241168731,
        "Longitude(deg)": 130.83355289189686,
        "Mean Anomaly(deg)": 33.91487369958805,
        "RAAN(deg)": 209.9854744378308,
        "Satellite Name": "Starlink Shell 1 925",
        "Satellite Number": 925,
        "Semi-Major Axis(m)": 6931778.249405717,
        "Time(s)": 280
    },
    {
        "Altitude(m)": 554589.0370094387,
        "Argument of Periapsis(deg)": 0.01010877590582587,
        "Eccentricity": 0.0,
        "Inclination(deg)": 53.0,
        "Latitude(deg)": 27.011641114127812,
        "Longitude(deg)": 131.2643491141037,
        "Mean Anomaly(deg)": 34.54170490314469,
        "RAAN(deg)": 209.98495566775327,
        "Satellite Name": "Starlink Shell 1 925",
        "Satellite Number": 925,
        "Semi-Major Axis(m)": 6931778.249405717,
        "Time(s)": 290
    },
    {
        "Altitude(m)": 554654.9410847808,
        "Argument of Periapsis(deg)": 0.010457354385337106,
        "Eccentricity": 0.0,
        "Inclination(deg)": 53.0,
        "Latitude(deg)": 27.47576435677948,
        "Longitude(deg)": 131.69904335202176,
        "Mean Anomaly(deg)": 35.16853610670147,
        "RAAN(deg)": 209.98443689767583,
        "Satellite Name": "Starlink Shell 1 925",
        "Satellite Number": 925,
        "Semi-Major Axis(m)": 6931778.249405717,
        "Time(s)": 300
    },
    {
        "Altitude(m)": 554722.1974998717,
        "Argument of Periapsis(deg)": 0.010805932864848343,
        "Eccentricity": 0.0,
        "Inclination(deg)": 53.0,
        "Latitude(deg)": 27.938216452314606,
        "Longitude(deg)": 132.13773277110133,
        "Mean Anomaly(deg)": 35.795367310258186,
        "RAAN(deg)": 209.98391812759837,
        "Satellite Name": "Starlink Shell 1 925",
        "Satellite Number": 925,
        "Semi-Major Axis(m)": 6931778.249405717,
        "Time(s)": 310
    },
    {
        "Altitude(m)": 554790.754604696,
        "Argument of Periapsis(deg)": 0.01115451134435958,
        "Eccentricity": 0.0,
        "Inclination(deg)": 53.0,
        "Latitude(deg)": 28.39895071392728,
        "Longitude(deg)": 132.58051585782252,
        "Mean Anomaly(deg)": 36.42219851381488,
        "RAAN(deg)": 209.98339935752088,
        "Satellite Name": "Starlink Shell 1 925",
        "Satellite Number": 925,
        "Semi-Major Axis(m)": 6931778.249405717,
        "Time(s)": 320
    },
    {
        "Altitude(m)": 554860.5602826452,
        "Argument of Periapsis(deg)": 0.011503089823870818,
        "Eccentricity": 0.0,
        "Inclination(deg)": 53.0,
        "Latitude(deg)": 28.857919425699706,
        "Longitude(deg)": 133.02749292614448,
        "Mean Anomaly(deg)": 37.0490297173716,
        "RAAN(deg)": 209.98288058744342,
        "Satellite Name": "Starlink Shell 1 925",
        "Satellite Number": 925,
        "Semi-Major Axis(m)": 6931778.249405717,
        "Time(s)": 330
    },
    {
        "Altitude(m)": 554931.5619782008,
        "Argument of Periapsis(deg)": 0.011851668303382053,
        "Eccentricity": 0.0,
        "Inclination(deg)": 53.0,
        "Latitude(deg)": 29.31507381250015,
        "Longitude(deg)": 133.4787651082255,
        "Mean Anomaly(deg)": 37.67586092092827,
        "RAAN(deg)": 209.98236181736596,
        "Satellite Name": "Starlink Shell 1 925",
        "Satellite Number": 925,
        "Semi-Major Axis(m)": 6931778.249405717,
        "Time(s)": 340
    },
    {
        "Altitude(m)": 555003.7067248324,
        "Argument of Periapsis(deg)": 0.012200246782893292,
        "Eccentricity": 0.0,
        "Inclination(deg)": 53.0,
        "Latitude(deg)": 29.770364009428324,
        "Longitude(deg)": 133.93443485491275,
        "Mean Anomaly(deg)": 38.30269212448502,
        "RAAN(deg)": 209.98184304728846,
        "Satellite Name": "Starlink Shell 1 925",
        "Satellite Number": 925,
        "Semi-Major Axis(m)": 6931778.249405717,
        "Time(s)": 350
    },
    {
        "Altitude(m)": 555076.9411730157,
        "Argument of Periapsis(deg)": 0.012548825262404526,
        "Eccentricity": 0.0,
        "Inclination(deg)": 53.0,
        "Latitude(deg)": 30.223739030833702,
        "Longitude(deg)": 134.39460643286088,
        "Mean Anomaly(deg)": 38.92952332804174,
        "RAAN(deg)": 209.981324277211,
        "Satellite Name": "Starlink Shell 1 925",
        "Satellite Number": 925,
        "Semi-Major Axis(m)": 6931778.249405717,
        "Time(s)": 360
    },
    {
        "Altitude(m)": 555151.2116184282,
        "Argument of Periapsis(deg)": 0.012897403741915765,
        "Eccentricity": 0.0,
        "Inclination(deg)": 53.0,
        "Latitude(deg)": 30.675146738937716,
        "Longitude(deg)": 134.85938490512387,
        "Mean Anomaly(deg)": 39.55635453159846,
        "RAAN(deg)": 209.9808055071335,
        "Satellite Name": "Starlink Shell 1 925",
        "Satellite Number": 925,
        "Semi-Major Axis(m)": 6931778.249405717,
        "Time(s)": 370
    }
]